ONEWEB-0369             
1 49295U 21090S   24021.83003028 -.00000055  00000+0 -17017-3 0  9994
2 49295  87.9207 119.6173 0001921 108.6014 251.5327 13.19724177110699
ONEWEB-0370             
1 49296U 21090T   24021.68161487 -.00000114  00000+0 -31275-3 0  9990
2 49296  87.9176  89.1102 0001789 101.7333 258.4001 13.20770416114034
ONEWEB-0371             
1 49297U 21090U   24021.76211100  .00000012  00000+0 -13690-5 0  9997
2 49297  87.9208 119.6210 0001907 103.8320 256.3025 13.19724573110727
ONEWEB-0372             
1 49298U 21090V   24021.74618729 -.00000050  00000+0 -15465-3 0  9997
2 49298  87.9174  89.1050 0002037 103.6561 256.4799 13.20770820114016
ONEWEB-0373             
1 49299U 21090W   24021.69739551 -.00000055  00000+0 -16699-3 0  9994
2 49299  87.9175  89.1328 0001807 113.9344 246.1979 13.20770993115190
ONEWEB-0374             
1 49300U 21090X   24021.78513302 -.00000323  00000+0 -90620-3 0  9995
2 49300  87.8973 104.3533 0001796 109.7418 250.3905 13.14502105112293
ONEWEB-0375             
1 49301U 21090Y   24021.68476761 -.00000017  00000+0 -74061-4 0  9994
2 49301  87.9178  89.1107 0001062 105.1617 254.9634 13.20771957114691
ONEWEB-0376             
1 49302U 21090Z   24021.76053341  .00000038  00000+0  63263-4 0  9992
2 49302  87.9201 119.6391 0002100 106.0041 254.1323 13.19725467110728
